[{"OBJECT_NAME":"PROPCUBE 3","OBJECT_ID":"2015-058K","EPOCH":"2026-03-09T17:34:06.780288","MEAN_MOTION":14.93528956,"ECCENTRICITY":0.01235273,"INCLINATION":64.7688,"RA_OF_ASC_NODE":203.0958,"ARG_OF_PERICENTER":99.6156,"MEAN_ANOMALY":261.8939,"EPHEMERIS_TYPE":0,"CLASSIFICATION_TYPE":"U","NORAD_CAT_ID":40973,"ELEMENT_SET_NO":999,"REV_AT_EPOCH":9994,"BSTAR":0.00046586011,"MEAN_MOTION_DOT":5.546e-5,"MEAN_MOTION_DDOT":0},{"OBJECT_NAME":"STARLINK-5689","OBJECT_ID":"2023-015AB","EPOCH":"2026-03-09T22:00:01.999584","MEAN_MOTION":15.12014611,"ECCENTRICITY":6.179e-5,"INCLINATION":42.9998,"RA_OF_ASC_NODE":337.6137,"ARG_OF_PERICENTER":254.0125,"MEAN_ANOMALY":325.8461,"EPHEMERIS_TYPE":0,"CLASSIFICATION_TYPE":"U","NORAD_CAT_ID":55474,"ELEMENT_SET_NO":999,"REV_AT_EPOCH":573,"BSTAR":0.0012439246,"MEAN_MOTION_DOT":0.00021586,"MEAN_MOTION_DDOT":0}]
